[{"OBJECT_NAME":"STARLINK-3548","OBJECT_ID":"2022-022N","EPOCH":"2026-03-09T23:24:03.438720","MEAN_MOTION":15.08838389,"ECCENTRICITY":0.00014593,"INCLINATION":53.2191,"RA_OF_ASC_NODE":7.7626,"ARG_OF_PERICENTER":118.0377,"MEAN_ANOMALY":242.0763,"EPHEMERIS_TYPE":0,"CLASSIFICATION_TYPE":"U","NORAD_CAT_ID":51864,"ELEMENT_SET_NO":999,"REV_AT_EPOCH":22320,"BSTAR":3.347674e-6,"MEAN_MOTION_DOT":-2.35e-6,"MEAN_MOTION_DDOT":0},{"OBJECT_NAME":"PSLV DEB","OBJECT_ID":"2001-049PF","EPOCH":"2026-02-25T09:35:51.227808","MEAN_MOTION":15.03011877,"ECCENTRICITY":0.00263657,"INCLINATION":98.0083,"RA_OF_ASC_NODE":118.9106,"ARG_OF_PERICENTER":265.6966,"MEAN_ANOMALY":94.1245,"EPHEMERIS_TYPE":0,"CLASSIFICATION_TYPE":"U","NORAD_CAT_ID":28853,"ELEMENT_SET_NO":999,"REV_AT_EPOCH":68879,"BSTAR":0.00037786861,"MEAN_MOTION_DOT":5.057e-5,"MEAN_MOTION_DDOT":0}]
